IRIDIUM 150             
1 43257U 18030J   25164.84013230  .00000005  00000+0 -52289-5 0  9998
2 43257  86.3961  84.4647 0002265  77.0648 283.0801 14.34217683377363
IRIDIUM 143             
1 43258U 18030K   25164.82110421  .00000263  00000+0  86801-4 0  9998
2 43258  86.3963  84.5505 0002439  71.9531 288.1930 14.34217860377295
IRIDIUM 161             
1 43478U 18047C   25165.50762935  .00000350  00000+0  97987-4 0  9993
2 43478  86.4496 242.0574 0002377 100.0104 260.1366 14.43283956372106
IRIDIUM 152             
1 43479U 18047D   25164.93335880  .00000245  00000+0  80435-4 0  9998
2 43479  86.3972 242.1579 0002363  97.0484 263.0981 14.34218798369701
IRIDIUM 147             
1 43480U 18047E   25164.93970166  .00000127  00000+0  38345-4 0  9994
2 43480  86.3971 242.1540 0002158  96.8938 263.2504 14.34218411369708
IRIDIUM 110             
1 43481U 18047F   25165.22511792  .00000310  00000+0  10365-3 0  9999
2 43481  86.3974 242.1170 0002381 106.8769 253.2688 14.34219404369731
IRIDIUM 162             
1 43482U 18047G   25164.73869526  .00000427  00000+0  12092-3 0  9994
2 43482  86.4496 242.2741 0002571 100.8611 259.2880 14.43283953371988
IRIDIUM 160             
1 43569U 18061A   25164.68257482  .00000194  00000+0  62075-4 0  9990
2 43569  86.3992 210.7430 0002309  98.7150 261.4307 14.34218264360554
